OBJECT_NAME,OBJECT_ID,EPOCH,MEAN_MOTION,ECCENTRICITY,INCLINATION,RA_OF_ASC_NODE,ARG_OF_PERICENTER,MEAN_ANOMALY,EPHEMERIS_TYPE,CLASSIFICATION_TYPE,NORAD_CAT_ID,ELEMENT_SET_NO,REV_AT_EPOCH,BSTAR,MEAN_MOTION_DOT,MEAN_MOTION_DDOT
IRIDIUM 135,2017-083A,2026-06-06T11:26:51.174816,14.34217643,.0002099,86.3955,326.4946,91.6167,268.5269,0,U,43070,999,44261,-.8060563E-5,-.3E-7,0
IRIDIUM 138,2017-083B,2026-06-06T12:03:23.227488,14.34217350,.00023977,86.3972,326.1779,89.3854,270.7617,0,U,43071,999,44260,.76145672E-4,.233E-5,0
IRIDIUM 116,2017-083C,2026-06-06T12:58:11.066304,14.34219353,.00019446,86.3960,326.4554,95.6088,264.5329,0,U,43072,999,44264,.75552089E-4,.231E-5,0
IRIDIUM 130,2017-083D,2026-06-06T12:12:31.209984,14.34194363,.00013681,86.4010,326.7443,65.2514,294.8824,0,U,43073,999,44258,.7416526E-4,.227E-5,0
IRIDIUM 151,2017-083E,2026-06-06T11:35:59.147808,14.34217721,.00021224,86.3957,326.5356,91.9807,268.1631,0,U,43074,999,44260,.41956669E-4,.137E-5,0
IRIDIUM 134,2017-083F,2026-06-06T12:30:47.168064,14.34218262,.00020913,86.3962,326.5275,88.3273,271.8162,0,U,43075,999,44257,.22133972E-4,.82E-6,0
IRIDIUM 137,2017-083G,2026-06-06T12:49:03.082080,14.34217569,.0001973,86.3961,326.6147,102.6478,257.4939,0,U,43076,999,44264,.27015372E-4,.95E-6,0
IRIDIUM 141,2017-083H,2026-06-06T12:39:55.185984,14.34217148,.00020858,86.3953,326.4487,90.4084,269.7351,0,U,43077,999,44264,-.19655913E-4,-.35E-6,0
IRIDIUM 153,2017-083J,2026-06-06T14:51:59.471712,14.34217703,.00023629,86.3954,294.8902,90.3685,269.7782,0,U,43078,999,44376,.7306006E-5,.4E-6,0
IRIDIUM 131,2017-083K,2026-06-06T12:21:39.120768,14.34217463,.00020784,86.3957,326.6393,92.4590,267.6844,0,U,43079,999,44257,-.2194849E-4,-.42E-6,0
IRIDIUM 144,2018-030A,2026-06-06T03:17:51.347904,14.34217715,.00020333,86.3951,295.0216,96.9096,263.2331,0,U,43249,999,42855,.3648966E-4,.122E-5,0
IRIDIUM 149,2018-030B,2026-06-06T15:10:15.454848,14.34217709,.00022599,86.3951,294.7816,93.0580,267.0875,0,U,43250,999,42864,.10305141E-4,.49E-6,0
IRIDIUM 157,2018-030C,2026-06-06T15:37:39.427392,14.34217485,.0002079,86.3948,294.8265,93.5333,266.6100,0,U,43251,999,42862,-.2287999E-5,.13E-6,0
IRIDIUM 140,2018-030D,2026-06-05T21:39:55.427040,14.34217648,.00021534,86.3951,295.1520,92.1234,268.0208,0,U,43252,999,42857,.6145871E-5,.37E-6,0
IRIDIUM 145,2018-030E,2026-06-06T15:46:47.307936,14.34217578,.00018391,86.3950,294.8087,96.0785,264.0620,0,U,43253,999,42861,.22598017E-4,.83E-6,0
IRIDIUM 146,2018-030F,2026-06-05T20:54:15.405696,14.34217426,.0001953,86.3947,295.1500,94.3523,265.7895,0,U,43254,999,42851,-.5288E-5,.5E-7,0
IRIDIUM 148,2018-030G,2026-06-06T11:12:47.348352,14.34217542,.00020754,86.3949,294.9436,97.2603,262.8828,0,U,43255,999,42863,-.6925236E-5,0,0
IRIDIUM 142,2018-030H,2026-06-06T15:28:31.382688,14.34217625,.00020248,86.3948,294.7584,95.5960,264.5467,0,U,43256,999,42862,.927158E-5,.46E-6,0
IRIDIUM 150,2018-030J,2026-06-06T14:42:51.444288,14.34217621,.00021518,86.3954,294.8879,91.6488,268.4954,0,U,43257,999,42864,.6979243E-5,.39E-6,0
IRIDIUM 143,2018-030K,2026-06-06T10:54:31.404960,14.34217494,.00019713,86.3951,295.0463,94.0899,266.0522,0,U,43258,999,42855,-.560859E-6,.18E-6,0
IRIDIUM 161,2018-047C,2026-06-06T13:28:22.787040,14.43276640,.00025805,86.4485,92.9125,91.0419,269.1078,0,U,43478,999,42360,.99145755E-4,.354E-5,0
IRIDIUM 152,2018-047D,2026-06-06T13:36:10.308672,14.34217770,.00023727,86.3954,92.7724,84.4621,275.6845,0,U,43479,999,42096,.9843439E-5,.47E-6,0
IRIDIUM 147,2018-047E,2026-06-06T13:45:18.240192,14.34216852,.00020402,86.3956,92.7746,84.5366,275.6062,0,U,43480,999,42096,-.884368E-5,-.5E-7,0
IRIDIUM 110,2018-047F,2026-06-06T02:11:10.326336,14.34217780,.0002582,86.3957,93.0677,87.6962,272.4530,0,U,43481,999,42088,.80706E-5,.42E-6,0
IRIDIUM 162,2018-047G,2026-06-06T13:19:18.503328,14.43275713,.00023647,86.4477,92.8075,83.6612,276.4858,0,U,43482,999,42359,.10432376E-3,.371E-5,0
IRIDIUM 160,2018-061A,2026-06-06T10:55:58.474560,14.34217967,.00022634,86.3968,61.2839,87.4955,272.6500,0,U,43569,999,41183,.16568372E-4,.66E-6,0
IRIDIUM 166,2018-061B,2026-06-06T11:32:30.457248,14.34217604,.00019736,86.3964,61.2238,83.6041,276.5379,0,U,43570,999,41186,-.1865969E-5,.15E-6,0
IRIDIUM 158,2018-061C,2026-06-06T10:46:50.442816,14.34217033,.00023029,86.3966,61.2472,84.1758,275.9700,0,U,43571,999,41182,.31564972E-4,.108E-5,0
IRIDIUM 165,2018-061D,2026-06-06T11:23:21.924384,14.34214558,.00022105,86.3972,61.2833,83.5981,276.5466,0,U,43572,999,41185,.85654545E-4,.26E-5,0
IRIDIUM 155,2018-061E,2026-06-06T03:46:42.498048,14.34217711,.00021964,86.3963,61.2846,81.4494,278.6951,0,U,43573,999,41177,.7548556E-5,.41E-6,0
